******** Week 937 almanac for PRN-01 ********
ID:                         01
Health:                     000
Eccentricity:               4.9448013306E-004
Time of Applicability(s):  430080.0000
Orbital Inclination(rad):   0.0265450582
Rate of Right Ascen(r/s):   9.9432713200E-010
SQRT(A)  (m 1/2):           6493.325195
Right Ascen at Week(rad):  -2.4490100700E-001
Argument of Perigee(rad):   3.007788408
Mean Anom(rad):            -2.9634479000E-001
Af0(s):                     8.8119510000E-004
Af1(s/s):                   0.0000000000E+000
week:                        937

******** Week 937 almanac for PRN-10 ********
ID:                         10
Health:                     000
Eccentricity:               9.3955993652E-003
Time of Applicability(s):  258048.0000
Orbital Inclination(rad):  -0.0807497074
Rate of Right Ascen(r/s):  -2.8001166400E-009
SQRT(A)  (m 1/2):           6492.960938
Right Ascen at Week(rad):  -2.8393688520E+000
Argument of Perigee(rad):  -2.434343246
Mean Anom(rad):             5.8061397500E-001
Af0(s):                    -6.0081480000E-005
Af1(s/s):                  -1.4551900000E-011
week:                        937

******** Week 937 almanac for PRN-11 ********
ID:                         11
Health:                     000
Eccentricity:               2.3102760315E-003
Time of Applicability(s):  258048.0000
Orbital Inclination(rad):   0.0425619748
Rate of Right Ascen(r/s):  -6.9145737300E-009
SQRT(A)  (m 1/2):           5282.588379
Right Ascen at Week(rad):  -1.9203525730E+000
Argument of Perigee(rad):  -1.681845151
Mean Anom(rad):             9.0557260000E-001
Af0(s):                     3.1471250000E-004
Af1(s/s):                   1.8189900000E-011
week:                        937

******** Week 937 almanac for PRN-12 ********
ID:                         12
Health:                     000
Eccentricity:               1.4042854309E-003
Time of Applicability(s):  258048.0000
Orbital Inclination(rad):   0.0409860492
Rate of Right Ascen(r/s):  -6.9145737300E-009
SQRT(A)  (m 1/2):           5282.580566
Right Ascen at Week(rad):  -1.9328367650E+000
Argument of Perigee(rad):  -1.611086542
Mean Anom(rad):             1.6441749870E+000
Af0(s):                     8.2111360000E-004
Af1(s/s):                  -1.0913900000E-011
week:                        937

******** Week 937 almanac for PRN-13 ********
ID:                         13
Health:                     000
Eccentricity:               4.8842430115E-003
Time of Applicability(s):  258048.0000
Orbital Inclination(rad):   0.0859808216
Rate of Right Ascen(r/s):  -1.6457828400E-009
SQRT(A)  (m 1/2):           6493.665039
Right Ascen at Week(rad):  -6.6575964600E-001
Argument of Perigee(rad):  -2.404037014
Mean Anom(rad):            -1.5891520400E+000
Af0(s):                     3.9768220000E-004
Af1(s/s):                   3.6379800000E-012
week:                        937

******** Week 937 almanac for PRN-14 ********
ID:                         14
Health:                     000
Eccentricity:               1.0437965393E-003
Time of Applicability(s):  184320.0000
Orbital Inclination(rad):   0.0312668428
Rate of Right Ascen(r/s):  -6.8917156400E-009
SQRT(A)  (m 1/2):           5282.576172
Right Ascen at Week(rad):   1.3738191100E-001
Argument of Perigee(rad):  -0.326068664
Mean Anom(rad):             5.6609359000E-002
Af0(s):                    -2.1839140000E-004
Af1(s/s):                   8.0035500000E-011
week:                        937

******** Week 937 almanac for PRN-15 ********
ID:                         15
Health:                     000
Eccentricity:               2.1969318390E-002
Time of Applicability(s):  421888.0000
Orbital Inclination(rad):  -0.1488680418
Rate of Right Ascen(r/s):  -1.2090789300E-007
SQRT(A)  (m 1/2):           5704.388184
Right Ascen at Week(rad):   3.0563582250E+000
Argument of Perigee(rad):  -1.414647868
Mean Anom(rad):             2.1552302740E+000
Af0(s):                    -9.0217590000E-004
Af1(s/s):                  -1.3060300000E-009
week:                        937

******** Week 937 almanac for PRN-16 ********
ID:                         16
Health:                     000
Eccentricity:               6.3214302063E-003
Time of Applicability(s):  258048.0000
Orbital Inclination(rad):   0.0187073751
Rate of Right Ascen(r/s):  -1.9315090300E-009
SQRT(A)  (m 1/2):           6493.840820
Right Ascen at Week(rad):   1.4934149360E+000
Argument of Perigee(rad):  -2.304217409
Mean Anom(rad):             2.7123488020E+000
Af0(s):                    -2.3555760000E-004
Af1(s/s):                  -2.1827900000E-011
week:                        937

******** Week 937 almanac for PRN-19 ********
ID:                         19
Health:                     000
Eccentricity:               7.1430206299E-004
Time of Applicability(s):  258048.0000
Orbital Inclination(rad):   0.0339932539
Rate of Right Ascen(r/s):  -6.5374151700E-009
SQRT(A)  (m 1/2):           5282.582520
Right Ascen at Week(rad):   1.3810096500E-001
Argument of Perigee(rad):  -1.107345752
Mean Anom(rad):             9.9191557000E-001
Af0(s):                    -9.4985960000E-004
Af1(s/s):                   7.2759600000E-012
week:                        937

******** Week 937 almanac for PRN-02 ********
ID:                         02
Health:                     000
Eccentricity:               8.2921981812E-004
Time of Applicability(s):  258048.0000
Orbital Inclination(rad):   0.0367556178
Rate of Right Ascen(r/s):   1.3714857000E-010
SQRT(A)  (m 1/2):           6493.385742
Right Ascen at Week(rad):  -7.5943284000E-002
Argument of Perigee(rad):  -1.262410387
Mean Anom(rad):             2.7720841710E+000
Af0(s):                     2.6702880000E-004
Af1(s/s):                   3.2741800000E-011
week:                        937

******** Week 937 almanac for PRN-20 ********
ID:                         20
Health:                     000
Eccentricity:               5.1879882812E-004
Time of Applicability(s):  258048.0000
Orbital Inclination(rad):   0.0339812697
Rate of Right Ascen(r/s):  -6.5259861200E-009
SQRT(A)  (m 1/2):           5282.584473
Right Ascen at Week(rad):   1.3872863800E-001
Argument of Perigee(rad):  -0.481356880
Mean Anom(rad):             1.1049163250E+000
Af0(s):                     1.3351440000E-005
Af1(s/s):                  -3.6379800000E-011
week:                        937

******** Week 937 almanac for PRN-21 ********
ID:                         21
Health:                     000
Eccentricity:               4.8971176147E-004
Time of Applicability(s):  258048.0000
Orbital Inclination(rad):   0.0332622162
Rate of Right Ascen(r/s):  -6.5374151700E-009
SQRT(A)  (m 1/2):           5282.581543
Right Ascen at Week(rad):   1.3983717900E-001
Argument of Perigee(rad):  -0.797842657
Mean Anom(rad):            -8.9281202200E-001
Af0(s):                    -9.6702580000E-004
Af1(s/s):                   0.0000000000E+000
week:                        937

******** Week 937 almanac for PRN-22 ********
ID:                         22
Health:                     000
Eccentricity:               3.9148330688E-004
Time of Applicability(s):  258048.0000
Orbital Inclination(rad):   0.0332742004
Rate of Right Ascen(r/s):  -6.5374151700E-009
SQRT(A)  (m 1/2):           5282.582520
Right Ascen at Week(rad):   1.3976003100E-001
Argument of Perigee(rad):   0.385441135
Mean Anom(rad):            -1.2954089500E+000
Af0(s):                    -1.8024440000E-004
Af1(s/s):                   1.4551900000E-011
week:                        937

******** Week 937 almanac for PRN-23 ********
ID:                         23
Health:                     000
Eccentricity:               2.4366378784E-004
Time of Applicability(s):  258048.0000
Orbital Inclination(rad):   0.0024807346
Rate of Right Ascen(r/s):  -6.7659961200E-009
SQRT(A)  (m 1/2):           5282.597656
Right Ascen at Week(rad):   2.2328753180E+000
Argument of Perigee(rad):   0.681526392
Mean Anom(rad):            -4.5141017400E-001
Af0(s):                    -8.0108640000E-004
Af1(s/s):                   7.2759600000E-012
week:                        937

******** Week 937 almanac for PRN-24 ********
ID:                         24
Health:                     000
Eccentricity:               8.6069107056E-004
Time of Applicability(s):  258048.0000
Orbital Inclination(rad):   0.0024747424
Rate of Right Ascen(r/s):  -6.7545670700E-009
SQRT(A)  (m 1/2):           5282.587891
Right Ascen at Week(rad):   2.2326921840E+000
Argument of Perigee(rad):   0.830979039
Mean Anom(rad):             9.6010194700E-001
Af0(s):                     7.0858000000E-004
Af1(s/s):                   3.6379800000E-011
week:                        937

******** Week 937 almanac for PRN-25 ********
ID:                         25
Health:                     000
Eccentricity:               6.1988830566E-004
Time of Applicability(s):  258048.0000
Orbital Inclination(rad):   0.0039547942
Rate of Right Ascen(r/s):  -6.7431380200E-009
SQRT(A)  (m 1/2):           5282.571289
Right Ascen at Week(rad):   2.2087870260E+000
Argument of Perigee(rad):   0.774332979
Mean Anom(rad):             2.0702711100E-001
Af0(s):                     2.8228760000E-004
Af1(s/s):                   7.2759600000E-012
week:                        937

